start=new Date('2021-10-18T00:00:00.000Z').valueOf();
sats=[{"OBJECT_TYPE":"PAYLOAD","RA_OF_ASC_NODE":"247.6414","MEAN_MOTION_DDOT":"0.0000000000000","REV_AT_EPOCH":"9525","ELEMENT_SET_NO":"999","RCS_SIZE":"LARGE","TLE_LINE2":"2 45094  53.0539 247.6414 0001516  67.5925 292.5225 15.06393318 95251","CENTER_NAME":"EARTH","PERIOD":"95.593","SITE":"AFETR","TIME_SYSTEM":"UTC","REF_FRAME":"TEME","TLE_LINE1":"1 45094U 20006BC  21290.60076432  .00001560  00000-0  12359-3 0  9997","BSTAR":"0.00012359000000","SEMIMAJOR_AXIS":"6925.369","CLASSIFICATION_TYPE":"U","INCLINATION":"53.0539","LAUNCH_DATE":"2020-01-29","OBJECT_NAME":"STARLINK-1146","COUNTRY_CODE":"US","MEAN_MOTION":"15.06393318","PERIAPSIS":"546.184","GP_ID":"187443263","NORAD_CAT_ID":"45094","MEAN_ELEMENT_THEORY":"SGP4","ECCENTRICITY":"0.00015160","EPOCH":"2021-10-17T14:25:06.037248","APOAPSIS":"548.284","OBJECT_ID":"2020-006BC","MEAN_MOTION_DOT":"0.00001560","MEAN_ANOMALY":"292.5225","EPHEMERIS_TYPE":"0","ARG_OF_PERICENTER":"67.5925","FILE":"3168566","DECAY_DATE":null},{"NORAD_CAT_ID":"45095","GP_ID":"187442011","PERIAPSIS":"546.132","MEAN_ELEMENT_THEORY":"SGP4","MEAN_MOTION":"15.06392567","ARG_OF_PERICENTER":"67.7479","FILE":"3168566","DECAY_DATE":null,"MEAN_MOTION_DOT":"0.00001435","EPHEMERIS_TYPE":"0","MEAN_ANOMALY":"292.3679","OBJECT_ID":"2020-006BD","EPOCH":"2021-10-17T14:30:24.945696","ECCENTRICITY":"0.00015950","APOAPSIS":"548.341","INCLINATION":"53.0550","CLASSIFICATION_TYPE":"U","OBJECT_NAME":"STARLINK-1147","COUNTRY_CODE":"US","LAUNCH_DATE":"2020-01-29","TLE_LINE1":"1 45095U 20006BD  21290.60445539  .00001435  00000-0  11522-3 0  9998","BSTAR":"0.00011522000000","TIME_SYSTEM":"UTC","REF_FRAME":"TEME","SITE":"AFETR","TLE_LINE2":"2 45095  53.0550 247.6412 0001595  67.7479 292.3679 15.06392567 95252","PERIOD":"95.593","CENTER_NAME":"EARTH","SEMIMAJOR_AXIS":"6925.371","REV_AT_EPOCH":"9525","MEAN_MOTION_DDOT":"0.0000000000000","OBJECT_TYPE":"PAYLOAD","RA_OF_ASC_NODE":"247.6412","RCS_SIZE":"LARGE","ELEMENT_SET_NO":"999"},{"INCLINATION":"53.0550","CLASSIFICATION_TYPE":"U","LAUNCH_DATE":"2020-01-29","OBJECT_NAME":"STARLINK-1152","COUNTRY_CODE":"US","MEAN_MOTION":"15.06386533","GP_ID":"187442261","NORAD_CAT_ID":"45096","PERIAPSIS":"546.251","MEAN_ELEMENT_THEORY":"SGP4","OBJECT_ID":"2020-006BE","ECCENTRICITY":"0.00014490","EPOCH":"2021-10-17T14:19:48.741024","APOAPSIS":"548.258","FILE":"3168566","ARG_OF_PERICENTER":"74.5831","DECAY_DATE":null,"MEAN_MOTION_DOT":"0.00001431","EPHEMERIS_TYPE":"0","MEAN_ANOMALY":"285.5318","OBJECT_TYPE":"PAYLOAD","RA_OF_ASC_NODE":"247.6817","REV_AT_EPOCH":"9524","MEAN_MOTION_DDOT":"0.0000000000000","RCS_SIZE":"LARGE","ELEMENT_SET_NO":"999","SITE":"AFETR","TLE_LINE2":"2 45096  53.0550 247.6817 0001449  74.5831 285.5318 15.06386533 95247","PERIOD":"95.593","CENTER_NAME":"EARTH","TLE_LINE1":"1 45096U 20006BE  21290.59709191  .00001431  00000-0  11495-3 0  9999","BSTAR":"0.00011495000000","TIME_SYSTEM":"UTC","REF_FRAME":"TEME","SEMIMAJOR_AXIS":"6925.390"},{"OBJECT_ID":"2020-006BG","APOAPSIS":"548.464","EPOCH":"2021-10-17T13:53:15.528480","ECCENTRICITY":"0.00017750","DECAY_DATE":null,"ARG_OF_PERICENTER":"65.2644","FILE":"3168566","MEAN_ANOMALY":"294.8529","EPHEMERIS_TYPE":"0","MEAN_MOTION_DOT":"0.00001712","MEAN_MOTION":"15.06393025","PERIAPSIS":"546.006","GP_ID":"187443013","MEAN_ELEMENT_THEORY":"SGP4","NORAD_CAT_ID":"45098","LAUNCH_DATE":"2020-01-29","COUNTRY_CODE":"US","OBJECT_NAME":"STARLINK-1184","INCLINATION":"53.0549","CLASSIFICATION_TYPE":"U","SEMIMAJOR_AXIS":"6925.370","SITE":"AFETR","CENTER_NAME":"EARTH","PERIOD":"95.593","TLE_LINE2":"2 45098  53.0549 247.7600 0001775  65.2644 294.8529 15.06393025 95240","BSTAR":"0.00013383000000","TLE_LINE1":"1 45098U 20006BG  21290.57865195  .00001712  00000-0  13383-3 0  9996","REF_FRAME":"TEME","TIME_SYSTEM":"UTC","RCS_SIZE":"LARGE","ELEMENT_SET_NO":"999","OBJECT_TYPE":"PAYLOAD","RA_OF_ASC_NODE":"247.7600","REV_AT_EPOCH":"9524","MEAN_MOTION_DDOT":"0.0000000000000"},{"LAUNCH_DATE":"2020-01-29","OBJECT_NAME":"STARLINK-1186","COUNTRY_CODE":"US","INCLINATION":"53.0558","CLASSIFICATION_TYPE":"U","OBJECT_ID":"2020-006BH","ECCENTRICITY":"0.00016070","EPOCH":"2021-10-17T14:41:01.768128","APOAPSIS":"548.233","ARG_OF_PERICENTER":"51.6772","FILE":"3168566","DECAY_DATE":null,"MEAN_MOTION_DOT":"-0.00008984","MEAN_ANOMALY":"308.4361","EPHEMERIS_TYPE":"0","MEAN_MOTION":"15.06430473","NORAD_CAT_ID":"45099","GP_ID":"187443763","PERIAPSIS":"546.007","MEAN_ELEMENT_THEORY":"SGP4","RCS_SIZE":"LARGE","ELEMENT_SET_NO":"999","OBJECT_TYPE":"PAYLOAD","RA_OF_ASC_NODE":"247.5889","REV_AT_EPOCH":"9525","MEAN_MOTION_DDOT":"0.0000000000000","SEMIMAJOR_AXIS":"6925.255","SITE":"AFETR","TLE_LINE2":"2 45099  53.0558 247.5889 0001607  51.6772 308.4361 15.06430473 95259","CENTER_NAME":"EARTH","PERIOD":"95.590","TLE_LINE1":"1 45099U 20006BH  21290.61182602 -.00008984  00000-0 -58446-3 0  9996","BSTAR":"-0.00058446000000","TIME_SYSTEM":"UTC","REF_FRAME":"TEME"},{"RA_OF_ASC_NODE":"247.7655","OBJECT_TYPE":"PAYLOAD","MEAN_MOTION_DDOT":"0.0000000000000","REV_AT_EPOCH":"9524","ELEMENT_SET_NO":"999","RCS_SIZE":"LARGE","TLE_LINE2":"2 45100  53.0532 247.7655 0001501  69.8866 290.2284 15.06392650 95240","CENTER_NAME":"EARTH","PERIOD":"95.593","SITE":"AFETR","TIME_SYSTEM":"UTC","REF_FRAME":"TEME","TLE_LINE1":"1 45100U 20006BJ  21290.57496381  .00001493  00000-0  11915-3 0  9992","BSTAR":"0.00011915000000","SEMIMAJOR_AXIS":"6925.371","CLASSIFICATION_TYPE":"U","INCLINATION":"53.0532","LAUNCH_DATE":"2020-01-29","OBJECT_NAME":"STARLINK-1193","COUNTRY_CODE":"US","MEAN_MOTION":"15.06392650","GP_ID":"187442511","PERIAPSIS":"546.197","MEAN_ELEMENT_THEORY":"SGP4","NORAD_CAT_ID":"45100","EPOCH":"2021-10-17T13:47:56.873184","ECCENTRICITY":"0.00015010","APOAPSIS":"548.276","OBJECT_ID":"2020-006BJ","MEAN_MOTION_DOT":"0.00001493","EPHEMERIS_TYPE":"0","MEAN_ANOMALY":"290.2284","FILE":"3168566","ARG_OF_PERICENTER":"69.8866","DECAY_DATE":null},{"TIME_SYSTEM":"UTC","REF_FRAME":"TEME","TLE_LINE1":"1 45101U 20006BK  21290.37222254  .00001333  00000-0  10837-3 0  9992","BSTAR":"0.00010837000000","TLE_LINE2":"2 45101  53.0542 248.6738 0001764  69.8238 290.2941 15.06396632 95219","PERIOD":"95.592","CENTER_NAME":"EARTH","SITE":"AFETR","SEMIMAJOR_AXIS":"6925.359","MEAN_MOTION_DDOT":"0.0000000000000","REV_AT_EPOCH":"9521","OBJECT_TYPE":"PAYLOAD","RA_OF_ASC_NODE":"248.6738","ELEMENT_SET_NO":"999","RCS_SIZE":"LARGE","GP_ID":"187442761","NORAD_CAT_ID":"45101","PERIAPSIS":"546.002","MEAN_ELEMENT_THEORY":"SGP4","MEAN_MOTION":"15.06396632","MEAN_MOTION_DOT":"0.00001333","MEAN_ANOMALY":"290.2941","EPHEMERIS_TYPE":"0","ARG_OF_PERICENTER":"69.8238","FILE":"3168566","DECAY_DATE":null,"ECCENTRICITY":"0.00017640","EPOCH":"2021-10-17T08:56:00.027456","APOAPSIS":"548.446","OBJECT_ID":"2020-006BK","CLASSIFICATION_TYPE":"U","INCLINATION":"53.0542","OBJECT_NAME":"STARLINK-1194","COUNTRY_CODE":"US","LAUNCH_DATE":"2020-01-29"},{"REV_AT_EPOCH":"9524","MEAN_MOTION_DDOT":"0.0000000000000","OBJECT_TYPE":"PAYLOAD","RA_OF_ASC_NODE":"247.6963","RCS_SIZE":"LARGE","ELEMENT_SET_NO":"999","BSTAR":"0.00004615400000","TLE_LINE1":"1 45102U 20006BL  21290.59338607  .00000406  00000-0  46154-4 0  9999","REF_FRAME":"TEME","TIME_SYSTEM":"UTC","SITE":"AFETR","PERIOD":"95.593","CENTER_NAME":"EARTH","TLE_LINE2":"2 45102  53.0548 247.6963 0001380  69.7401 290.3737 15.06391797 95244","SEMIMAJOR_AXIS":"6925.374","INCLINATION":"53.0548","CLASSIFICATION_TYPE":"U","COUNTRY_CODE":"US","OBJECT_NAME":"STARLINK-1195","LAUNCH_DATE":"2020-01-29","GP_ID":"187443513","PERIAPSIS":"546.283","NORAD_CAT_ID":"45102","MEAN_ELEMENT_THEORY":"SGP4","MEAN_MOTION":"15.06391797","DECAY_DATE":null,"ARG_OF_PERICENTER":"69.7401","FILE":"3168566","EPHEMERIS_TYPE":"0","MEAN_ANOMALY":"290.3737","MEAN_MOTION_DOT":"0.00000406","OBJECT_ID":"2020-006BL","APOAPSIS":"548.194","EPOCH":"2021-10-17T14:14:28.556448","ECCENTRICITY":"0.00013800"},{"CLASSIFICATION_TYPE":"U","INCLINATION":"53.0539","LAUNCH_DATE":"2020-01-29","COUNTRY_CODE":"US","OBJECT_NAME":"STARLINK-1196","MEAN_MOTION":"15.06397586","NORAD_CAT_ID":"45103","GP_ID":"187443264","PERIAPSIS":"546.003","MEAN_ELEMENT_THEORY":"SGP4","APOAPSIS":"548.438","ECCENTRICITY":"0.00017580","EPOCH":"2021-10-17T14:51:37.727424","OBJECT_ID":"2020-006BM","MEAN_ANOMALY":"288.7276","EPHEMERIS_TYPE":"0","MEAN_MOTION_DOT":"0.00001311","DECAY_DATE":null,"ARG_OF_PERICENTER":"71.3904","FILE":"3168566","RA_OF_ASC_NODE":"247.5822","OBJECT_TYPE":"PAYLOAD","MEAN_MOTION_DDOT":"0.0000000000000","REV_AT_EPOCH":"9525","ELEMENT_SET_NO":"999","RCS_SIZE":"LARGE","CENTER_NAME":"EARTH","PERIOD":"95.592","TLE_LINE2":"2 45103  53.0539 247.5822 0001758  71.3904 288.7276 15.06397586 95256","SITE":"AFETR","REF_FRAME":"TEME","TIME_SYSTEM":"UTC","BSTAR":"0.00010693000000","TLE_LINE1":"1 45103U 20006BM  21290.61918666  .00001311  00000-0  10693-3 0  9996","SEMIMAJOR_AXIS":"6925.356"},{"ELEMENT_SET_NO":"999","RCS_SIZE":"LARGE","MEAN_MOTION_DDOT":"0.0000000000000","REV_AT_EPOCH":"9300","OBJECT_TYPE":"PAYLOAD","RA_OF_ASC_NODE":"47.5990","SEMIMAJOR_AXIS":"6925.378","REF_FRAME":"TEME","TIME_SYSTEM":"UTC","BSTAR":"0.00000632990000","TLE_LINE1":"1 45178U 20012A   21290.61181397 -.00000187  00000-0  63299-5 0  9991","PERIOD":"95.593","CENTER_NAME":"EARTH","TLE_LINE2":"2 45178  53.0554  47.5990 0001312  85.3311 274.7828 15.06390473 93009","SITE":"AFETR","COUNTRY_CODE":"US","OBJECT_NAME":"STARLINK-1138","LAUNCH_DATE":"2020-02-17","CLASSIFICATION_TYPE":"U","INCLINATION":"53.0554","EPHEMERIS_TYPE":"0","MEAN_ANOMALY":"274.7828","MEAN_MOTION_DOT":"-0.00000187","DECAY_DATE":null,"FILE":"3168566","ARG_OF_PERICENTER":"85.3311","APOAPSIS":"548.151","EPOCH":"2021-10-17T14:41:00.727008","ECCENTRICITY":"0.00013120","OBJECT_ID":"2020-012A","GP_ID":"187443021","MEAN_ELEMENT_THEORY":"SGP4","PERIAPSIS":"546.334","NORAD_CAT_ID":"45178","MEAN_MOTION":"15.06390473"}];
